[{"OBJECT_NAME":"AMOS-17","OBJECT_ID":"2019-050A","EPOCH":"2026-03-04T03:50:53.465856","MEAN_MOTION":1.00270942,"ECCENTRICITY":0.0001461,"INCLINATION":0.0481,"RA_OF_ASC_NODE":289.9575,"ARG_OF_PERICENTER":48.0592,"MEAN_ANOMALY":258.5848,"EPHEMERIS_TYPE":0,"CLASSIFICATION_TYPE":"U","NORAD_CAT_ID":44479,"ELEMENT_SET_NO":999,"REV_AT_EPOCH":2413,"BSTAR":0,"MEAN_MOTION_DOT":9.6e-7,"MEAN_MOTION_DDOT":0}]
